[
  {
    "city": "",
    "street": "Help Desk: help@3rdmil.com",
    "state": "VA",
    "lat": 37.4315734,
    "providerName": "3rd Millennium Classrooms",
    "zip": "",
    "phone": "",
    "lng": -78.6568942
  },
  {
    "city": "Richmond",
    "street": "804 Moorefield Park Drive #204",
    "phone": "",
    "lng": "-77.58093819999999",
    "providerName": "ABC Counseling",
    "zip": "",
    "state": "VA",
    "lat": "37.5014253"
  },
  {
    "providerName": "ANCHOR Commission",
    "street": "313 East Market Street",
    "lat": 36.6861604,
    "zip": 24112,
    "phone": "(276) 634-2910",
    "lng": -79.86675200000002,
    "city": "Martinsville",
    "state": "VA"
  },
  {
    "phone": "(571) 659-0056",
    "providerName": "About Change",
    "lng": -77.35084499999999,
    "state": "VA",
    "lat": 38.6754837,
    "street": "4000 Genesee Place Suite 101",
    "zip": 22192,
    "city": "Woodbridge"
  },
  {
    "street": "207 Fairfax Lane",
    "lat": 38.3356693,
    "lng": -77.77633830000002,
    "state": "VA",
    "zip": 22508,
    "providerName": "Adam Doane Child and Family Counseling",
    "phone": "540-729-8892",
    "city": "Locust Grove"
  },
  {
    "street": "4011 Peregrine Ridge Court",
    "providerName": "Aethiops Business Solutions",
    "phone": "(703) 851-0790",
    "lng": -77.32968299999999,
    "city": "Woodbridge",
    "zip": 22192,
    "lat": 38.6977609,
    "state": "VA"
  },
  {
    "providerName": "Bacon Street Youth and Family Services",
    "state": "Virginia",
    "city": "Williamsburg",
    "street": "247 McLaws Circle",
    "lng": -76.34577730000001,
    "zip": 23185,
    "lat": 37.1223664,
    "phone": 7572530111
  },
  {
    "providerName": "Bacon Street Youth and Family Services",
    "zip": 23693,
    "lat": 37.1223664,
    "street": "4034 George Washington Highway Suite B",
    "lng": -76.34577730000001,
    "state": "VA",
    "city": "Yorktown",
    "phone": "757-253-0111"
  },
  {
    "city": "Gloucester",
    "state": "VA",
    "street": "6523 Main Street",
    "providerName": "Bacon Street Youth and Family Services",
    "zip": 23061,
    "lng": -76.34522179999999,
    "phone": "757-253-0111",
    "lat": 37.0298687
  },
  {
    "state": "VA",
    "street": "749- A Thimble Shoals Blvd",
    "lng": -76.4648301,
    "providerName": "Bacon Street Youth and Family Services",
    "phone": 7572530111,
    "lat": 37.0806697,
    "city": "Newport News",
    "zip": 23606
  },
  {
    "state": "VA",
    "providerName": "Blue Ridge Behavioral Healthcare",
    "phone": "(540) 981-1102 ext. 2248",
    "lat": 37.2617967,
    "city": "Roanoke",
    "lng": -79.94710099999999,
    "street": "1315 Franklin Rd. SW",
    "zip": 24016
  },
  {
    "state": "VA",
    "lng": -80.001,
    "phone": "(540) 777-7060",
    "lat": 37.237,
    "street": "3536 Brambleton Avenue, SW Suite 3",
    "zip": 24018,
    "city": "Roanoke",
    "providerName": "Brambleton Assessment and Counseling Center"
  },
  {
    "lat": "",
    "phone": "434-989-0011",
    "providerName": "CM Mentoring Services",
    "state": "VA",
    "lng": "",
    "zip": 22947,
    "street": "4028 Richmond ROad",
    "city": "Keswick"
  },
  {
    "lng": -77.84121110000001,
    "phone": "540-399-1926",
    "street": "23164 Dragoon Road",
    "providerName": "Childhelp",
    "state": "VA",
    "lat": 38.3875036,
    "city": "Lignum",
    "zip": 22736
  },
  {
    "city": "Madison",
    "zip": 22727,
    "lng": -78.25646929999999,
    "lat": 38.3825562,
    "street": "108 Schoolhouse Rd",
    "providerName": "Chrysalis Counseling Centers",
    "state": "VA",
    "phone": "(540) 738-2245"
  },
  {
    "providerName": "Chrysalis Counseling Centers",
    "street": "54 E. Lee Street",
    "phone": "(540) 347-0613",
    "state": "VA",
    "lat": 38.7118172,
    "city": "Warrenton",
    "zip": 20186,
    "lng": -77.79470900000001
  },
  {
    "providerName": "Chrysalis Counseling Centers",
    "street": "605 N. Main Street",
    "phone": "(540) 727-0770",
    "zip": 22701,
    "state": "VA",
    "city": "Culpeper",
    "lat": 38.4767482,
    "lng": -77.99442950000002
  },
  {
    "street": "1900 N. Beauregard Street, Suite 200",
    "providerName": "City of Alexandria Department of Community and Human Services",
    "phone": "(571) 213-7963",
    "state": "VA",
    "city": "Alexandria",
    "lng": -77.12123539999999,
    "lat": 38.8341153,
    "zip": 22311
  },
  {
    "state": "VA",
    "street": "",
    "zip": 23323,
    "city": "Chesapeake",
    "lat": 36.74135,
    "providerName": "Clinical Healing and Mindfulness Practices",
    "phone": "540.307.0002",
    "lng": -76.3457098
  },
  {
    "providerName": "Commonwealth Catholic Charities",
    "city": "Richmond",
    "phone": "",
    "street": "1601 Rolling Hills Drive",
    "lat": 37.603,
    "zip": 23229,
    "lng": -77.545,
    "state": "VA"
  },
  {
    "lat": 36.9347882,
    "city": "Norton",
    "street": "507 Park Avenue",
    "providerName": "Commonwealth Catholic Charities",
    "state": "VA",
    "phone": "",
    "lng": -82.62591139999999,
    "zip": 24273
  },
  {
    "lat": 37.081049,
    "city": "Newport News",
    "providerName": "Commonwealth Catholic Charities",
    "lng": -76.4667695,
    "state": "VA",
    "street": "740 Thimble Shoals Blvd., Suite F",
    "phone": "757.247.3600",
    "zip": 23606
  },
  {
    "lat": "",
    "phone": "540.342.7561",
    "street": "820 Campbell Avenue, SW",
    "state": "VA",
    "lng": "",
    "zip": 24016,
    "providerName": "Commonwealth Catholic Charities",
    "city": "Roanoke"
  },
  {
    "lat": "38.9128747",
    "zip": "22630",
    "lng": "-78.19391399999999",
    "phone": "5404045985",
    "providerName": "Connected Communities",
    "street": "410 S Royal Ave",
    "city": "Front Royal",
    "state": "VA"
  },
  {
    "state": "VA",
    "city": "Winchester",
    "lat": "39.1826616",
    "providerName": "Connected Communities",
    "zip": "22601",
    "street": "44 South Cameron St.  Suite 2 A&B",
    "lng": "-78.1643134",
    "phone": "540-404-5985"
  },
  {
    "providerName": "Connected Communities",
    "state": "VA",
    "lng": "",
    "zip": "",
    "city": "Richmond",
    "phone": "",
    "street": "804 Moorefield Park Drive, #204",
    "lat": ""
  },
  {
    "providerName": "Counseling and Forensic Services",
    "phone": "(703) 492-2994",
    "lng": -77.34838689999998,
    "lat": 38.6770971,
    "zip": 22192,
    "street": "13000 Harbor Center Drive, Suite 302",
    "state": "VA",
    "city": "Woodbridge"
  },
  {
    "street": "1423 Powhatan Street",
    "zip": 22314,
    "state": "VA",
    "phone": "(703) 838-8787",
    "lat": 38.8201304,
    "lng": -77.04803609999999,
    "city": "Alexandria",
    "providerName": "Counseling and Forensic Services"
  },
  {
    "lng": -77.54814879999998,
    "providerName": "Counseling and Forensic Services",
    "city": "Leesburg",
    "street": "21-B Fort Evans Rd. NE",
    "lat": 39.1072553,
    "state": "VA",
    "zip": 20176,
    "phone": "(703) 443-6917"
  },
  {
    "zip": 23860,
    "lng": -77.2876783,
    "city": "Hopewell",
    "state": "VA",
    "lat": 37.3037169,
    "providerName": "Counseling and Forensic Services",
    "street": "224 N Main St, Ste. 107,",
    "phone": "(703) 492-2994"
  },
  {
    "providerName": "Counseling and Forensic Services",
    "street": "28 Ashby Street, Suite 106",
    "phone": "(540) 216-3641",
    "lat": 38.7132047,
    "city": "Warrenton",
    "lng": -77.79696560000002,
    "zip": 20188,
    "state": "VA"
  },
  {
    "city": "Emporia",
    "providerName": "Counseling and Forensic Services",
    "street": "401 Halifax Street, Ste. B,",
    "phone": "(703) 492-2994",
    "zip": 23847,
    "lat": 36.6932711,
    "state": "VA",
    "lng": -77.5366389
  },
  {
    "state": "VA",
    "lng": -77.47484810000003,
    "zip": 20110,
    "street": "9324 West Street, Suite 203",
    "lat": 38.7519571,
    "city": "Manassas",
    "providerName": "Counseling and Forensic Services",
    "phone": ""
  },
  {
    "street": "115 Main Street  Suite 6",
    "state": "VA",
    "lng": -77.4878544,
    "providerName": "Daybreak Counseling and Forensic Services",
    "city": "Louisa",
    "lat": 37.6029662,
    "phone": "540-850-8172",
    "zip": 23093
  },
  {
    "lng": -78.4684676,
    "phone": "434-977-9847",
    "lat": 38.0695754,
    "zip": 22901,
    "city": "Charlottesville",
    "state": "VA",
    "street": "1020 Carrington Place, Suite 100",
    "providerName": "DePaul Community Resources"
  },
  {
    "street": "106 Abingdon Place",
    "phone": "276-623-0881",
    "lat": 36.6962763,
    "zip": 24211,
    "lng": -81.97299869999999,
    "state": "VA",
    "city": "Abingdon",
    "providerName": "DePaul Community Resources"
  },
  {
    "lng": -80.4065045,
    "zip": 24073,
    "street": "106 Franklin Street",
    "providerName": "DePaul Community Resources",
    "city": "Christiansburg",
    "phone": "540-381-1848",
    "lat": 37.1288855,
    "state": "VA"
  },
  {
    "state": "VA",
    "street": "2677 Steelsburg Highway, Suite 10",
    "phone": "276-963-2360",
    "lng": -81.7844693,
    "city": "Cedar Bluff",
    "zip": 24609,
    "providerName": "DePaul Community Resources",
    "lat": 37.045484
  },
  {
    "zip": 24551,
    "city": "Forest",
    "providerName": "DePaul Community Resources",
    "state": "VA",
    "phone": "434-455-3727",
    "lat": 37.3379981,
    "lng": -79.27264339999999,
    "street": "4859 Waterlick Road"
  },
  {
    "phone": "540-265-8923",
    "providerName": "DePaul Community Resources",
    "state": "VA",
    "lat": 37.3430896,
    "street": "5650 Hollins Road",
    "city": "Roanoke",
    "zip": 24019,
    "lng": -79.9256305
  },
  {
    "street": "1635 Woods Rd",
    "providerName": "Elite Watch",
    "phone": "(434) 942-1051",
    "city": "Bedford",
    "state": "VA",
    "lng": -79.5363923,
    "zip": "",
    "lat": 37.3952514
  },
  {
    "city": "Chesterfield",
    "street": "",
    "lat": 37.3770935,
    "zip": "",
    "state": "VA",
    "phone": "",
    "lng": -77.5049863,
    "providerName": "Elk Hill Children and Family Services"
  },
  {
    "lng": -78.24761459999999,
    "phone": "",
    "lat": 37.8532863,
    "zip": "",
    "providerName": "Elk Hill Children and Family Services",
    "street": "",
    "state": "VA",
    "city": "Fluvanna"
  },
  {
    "street": "1426 Bremo Rd",
    "phone": "",
    "lng": -78.2824729,
    "zip": 23022,
    "lat": 37.7118401,
    "state": "VA",
    "city": "Bremo Bluff",
    "providerName": "Elk Hill Children and Family Services"
  },
  {
    "lng": -78.08,
    "city": "Goochland",
    "lat": 37.716,
    "zip": 23063,
    "providerName": "Elk Hill Children and Family Services",
    "state": "VA",
    "phone": "(804)337-6440",
    "street": "1975 Elk Hill Road"
  },
  {
    "street": "206 S East St",
    "state": "VA",
    "lng": -77.9950317,
    "lat": 38.4720935,
    "phone": "540.829.6685",
    "city": "Culpeper",
    "zip": 22701,
    "providerName": "Empowering Families Program"
  },
  {
    "state": "VA",
    "city": "Charlottesville",
    "phone": "434.971.8454",
    "lat": 38.0375482,
    "zip": 22903,
    "street": "901 Preston Ave, Ste. 201",
    "lng": -78.4885896,
    "providerName": "Empowering Families Program"
  },
  {
    "phone": "1-833-698-4357",
    "providerName": "Envision Counseling",
    "zip": 20176,
    "street": "1 E. Market St",
    "state": "VA",
    "city": "Leesburg",
    "lat": 39.1152962,
    "lng": -77.56440470000001
  },
  {
    "zip": 23230,
    "state": "VA",
    "phone": "1-833-698-4357",
    "lat": 37.578497,
    "providerName": "Envision Counseling",
    "street": "5014 Monument Avenue",
    "city": "Richmond",
    "lng": -77.49895900000001
  },
  {
    "street": "7630 Little River Tpke, Ste 601",
    "providerName": "Envision Counseling",
    "city": "Annandale",
    "lat": 38.8338052,
    "lng": -77.2083597,
    "phone": "833-698-4357",
    "state": "VA",
    "zip": 22003
  },
  {
    "providerName": "Envision Counseling",
    "street": "9301 Forest Point Circle",
    "lat": 38.7658935,
    "state": "VA",
    "phone": "833-698-4357",
    "zip": 20110,
    "lng": -77.478779,
    "city": "Manassas"
  },
  {
    "lng": -79.24604,
    "city": "Lynchburg",
    "zip": 24502,
    "state": "VA",
    "providerName": "Family Preservation Services",
    "street": "100 Copley Place",
    "phone": "(434) 528-9711",
    "lat": 37.3816194
  },
  {
    "phone": "(276) 546-3330",
    "city": "Pennington Gap",
    "providerName": "Family Preservation Services",
    "lng": -83.02755709999997,
    "state": "VA",
    "street": "109 North Main Street",
    "zip": 24277,
    "lat": 36.7587784
  },
  {
    "city": "Chesapeake",
    "lat": 36.7659922,
    "street": "1214 Progressive Drive, Suite 101",
    "providerName": "Family Preservation Services",
    "lng": -76.2310061,
    "phone": "(757) 455-8300",
    "zip": 23320,
    "state": "VA"
  },
  {
    "street": "180 West Main St, Suite 2",
    "city": "Wytheville",
    "lng": -81.08462309999999,
    "lat": 36.9492106,
    "zip": 24382,
    "phone": "(276) 335-2243",
    "providerName": "Family Preservation Services",
    "state": "VA"
  },
  {
    "state": "VA",
    "zip": 23901,
    "providerName": "Family Preservation Services",
    "city": "Farmville",
    "street": "201 N Main St, Unit 2201-D",
    "lat": 37.3011248,
    "phone": "(434) 392-3328",
    "lng": -78.3881111
  },
  {
    "phone": "(276) 963-3606",
    "providerName": "Family Preservation Services",
    "lng": -81.73966710000002,
    "lat": 37.0633021,
    "city": "Pounding Mill",
    "zip": 24637,
    "street": "220 Clay Drive",
    "state": "VA"
  },
  {
    "lat": 38.208917,
    "street": "246 Rolla Mill Road",
    "lng": -79.00441769999999,
    "city": "Verona",
    "phone": "(540) 248-5510",
    "state": "VA",
    "zip": 24482,
    "providerName": "Family Preservation Services"
  },
  {
    "city": "Winchester",
    "lng": -78.19015200000001,
    "street": "3363 Shawnee Drive",
    "zip": 22601,
    "lat": 39.1394973,
    "state": "VA",
    "providerName": "Family Preservation Services",
    "phone": "(540) 535-0043"
  },
  {
    "state": "VA",
    "phone": "(276) 679-1045",
    "providerName": "Family Preservation Services",
    "zip": 24273,
    "lng": -82.62268949999998,
    "street": "340 Anderson Hollow Road, Suite 200",
    "city": "Norton",
    "lat": 36.9452291
  },
  {
    "phone": "276.632.1113",
    "lng": -79.87426399999998,
    "state": "VA",
    "city": "Martinsville",
    "street": "445 E. Commonwealth Blvd.",
    "zip": 24112,
    "providerName": "Family Preservation Services",
    "lat": 36.6895524
  },
  {
    "state": "VA",
    "city": "Roanoke",
    "zip": 24019,
    "phone": "(540) 344-9501",
    "lat": 37.3369666,
    "providerName": "Family Preservation Services",
    "lng": -79.971992,
    "street": "5639 Peters Creek Rd"
  },
  {
    "lng": -81.9548667,
    "street": "661 East Main Street",
    "state": "VA",
    "lat": 36.7178793,
    "providerName": "Family Preservation Services",
    "zip": 24210,
    "phone": "(276) 623-9245",
    "city": "Abingdon"
  },
  {
    "phone": "(757) 873-0130",
    "providerName": "Family Preservation Services",
    "state": "VA",
    "lat": 37.0828645,
    "lng": -76.46524779999999,
    "street": "739 Thimble Shoals Blvd  Suite 706",
    "zip": 23606,
    "city": "Newport News"
  },
  {
    "providerName": "Fields of Hope and Dreams Mentoring Services",
    "lng": "",
    "street": "6790 Woodcreeper Drive",
    "zip": 24019,
    "phone": "540-556-9388",
    "city": "Roanoke",
    "state": "VA",
    "lat": ""
  },
  {
    "providerName": "Forensic Psychology Associates",
    "city": "Midlothian",
    "street": "5900 Harbour Park Drive",
    "zip": 23112,
    "state": "VA",
    "phone": "(804) 739-4669",
    "lat": 37.413699,
    "lng": -77.64836000000003
  },
  {
    "street": "5301 Farmville Road",
    "lat": 37.2444493,
    "city": "Farmville",
    "phone": "(434) 298-7318",
    "zip": 23901,
    "providerName": "Fulcrum Counselors",
    "lng": -78.44331019999998,
    "state": "VA"
  },
  {
    "zip": 23238,
    "lat": 37.6111182,
    "phone": "(804) 784-6432",
    "city": "Richmond",
    "street": "12800 West Creek Parkway",
    "lng": -77.6676114,
    "providerName": "Hallmark Youthcare",
    "state": "VA"
  },
  {
    "providerName": "Harrisonburg-Rockingham Community Services Board",
    "phone": "540.434.1941",
    "street": "1241 North Main St",
    "lng": -78.85339799999997,
    "state": "VA",
    "zip": 22802,
    "city": "Harrisonburg",
    "lat": 38.4621078
  },
  {
    "lng": -78.85371250000003,
    "providerName": "Harrisonburg-Rockingham Community Services Board",
    "zip": 22802,
    "phone": "(540) 433.3100",
    "city": "Harrisonburg",
    "lat": 38.4546289,
    "state": "VA",
    "street": "463 East Washington St"
  },
  {
    "state": "VA",
    "zip": 22960,
    "city": "Orange",
    "street": "113 W Main St",
    "phone": "540-317-1404",
    "providerName": "Health Connect America",
    "lng": -78.1118527,
    "lat": 38.24513109999999
  },
  {
    "lat": 38.4120854,
    "zip": 22801,
    "street": "35 Southgate Ct STE 101",
    "city": "Harrisonburg",
    "providerName": "Health Connect America",
    "lng": -78.8989435,
    "state": "VA",
    "phone": "540-440-7027"
  },
  {
    "lng": -77.991897,
    "street": "40 Stoneridge Dr",
    "zip": 22980,
    "lat": 38.445113,
    "phone": "540-440-7027",
    "state": "VA",
    "providerName": "Health Connect America",
    "city": "Waynesboro"
  },
  {
    "lat": 36.7065717,
    "providerName": "Health Connect America",
    "phone": "(276) 628-5752",
    "city": "Abingdon",
    "street": "460 West Main Street",
    "zip": 24210,
    "lng": -81.9863125,
    "state": "VA"
  },
  {
    "city": "Charlottesville",
    "street": "485 Hillsdale Dr #306",
    "lat": 38.0677681,
    "state": "VA",
    "phone": "434-326-1200",
    "providerName": "Health Connect America",
    "zip": 22901,
    "lng": -78.481462
  },
  {
    "state": "VA",
    "lng": -77.13273680000002,
    "lat": 38.7693853,
    "zip": 22310,
    "city": "Alexandria",
    "phone": "(703) 680-9527",
    "providerName": "Health Connect America",
    "street": "5695 King Centre Dr Suite B-101,"
  },
  {
    "state": "VA",
    "street": "6 Pidgeon Hill Dr #200",
    "zip": 20165,
    "providerName": "Health Connect America",
    "city": "Sterling",
    "lng": -77.4127297,
    "phone": "703-994-4809",
    "lat": 39.0373216
  },
  {
    "lat": 36.9345873,
    "phone": "276-644-7690",
    "state": "VA",
    "city": "Norton",
    "lng": -82.62759319999999,
    "providerName": "Health Connect America",
    "street": "616 Park Ave. NW",
    "zip": 24273
  },
  {
    "state": "VA",
    "lat": 37.6539616,
    "street": "10299 Woodman Road",
    "city": "Glen Allen",
    "zip": 23060,
    "providerName": "Henrico Area Mental Health and Developmental Services",
    "phone": "(804) 727-8500",
    "lng": -77.493552
  },
  {
    "zip": 24502,
    "street": "2215 Langhorne Rd",
    "state": "VA",
    "lng": -79.17495339999999,
    "lat": 37.4125946,
    "phone": "(434) 948-4902",
    "city": "Lynchburg",
    "providerName": "Horizon Behavioral Health"
  },
  {
    "city": "Lynchburg",
    "lng": -79.145,
    "lat": 37.416,
    "street": "618 Court Street",
    "zip": 24504,
    "providerName": "Horizon Behavioral Health",
    "state": "VA",
    "phone": "(434)948-4902"
  },
  {
    "street": "10517-B Braddock Rd.",
    "phone": "434-533-1088",
    "city": "Fairfax",
    "lng": "-77.3122404",
    "providerName": "Impact Living Services",
    "state": "VA",
    "lat": "38.8247175",
    "zip": "22032"
  },
  {
    "lng": "-76.0905271",
    "zip": "23453",
    "city": "Virginia Beach",
    "phone": "",
    "providerName": "Impact Living Services",
    "lat": "36.7943167",
    "street": "1303 Evergreen Ct",
    "state": "VA"
  },
  {
    "city": "Virginia Beach,",
    "state": "VA",
    "zip": "23453",
    "street": "1329 White Pine Court",
    "lat": "36.7947741",
    "providerName": "Impact Living Services",
    "lng": "-76.08769629999999",
    "phone": ""
  },
  {
    "state": "VA",
    "city": "Henrico",
    "lat": "37.6371042",
    "zip": "23288",
    "phone": "",
    "lng": "-77.47047429999999",
    "street": "1508 F Spring Tree Ct",
    "providerName": "Impact Living Services"
  },
  {
    "zip": "22801",
    "lat": "38.4207674",
    "state": "VA",
    "street": "2262 Blue Stone Hills Dr. Suite C",
    "providerName": "Impact Living Services",
    "lng": "-78.84069749999999",
    "city": "Harrisonburg",
    "phone": "434-533-1088"
  },
  {
    "lng": "-79.249741",
    "providerName": "Impact Living Services",
    "phone": "434-533-1088",
    "zip": "24551",
    "city": "Forrest",
    "lat": "37.36965",
    "street": "316 Brook Park Place Suite A1",
    "state": "VA"
  },
  {
    "city": "Fredericksburg",
    "lng": "-77.50465489999999",
    "zip": "22407",
    "street": "4660 Monroe Way",
    "lat": "38.2175892",
    "phone": "",
    "providerName": "Impact Living Services",
    "state": "VA"
  },
  {
    "phone": "",
    "state": "VA",
    "city": "Roanoke",
    "providerName": "Impact Living Services",
    "lat": "37.3038435",
    "lng": "-79.8869392",
    "street": "Mexico Way NE",
    "zip": "24012"
  },
  {
    "providerName": "Impacting Futures Community Services",
    "lng": "",
    "state": "VA",
    "zip": "",
    "street": "",
    "lat": "",
    "phone": "",
    "city": ""
  },
  {
    "street": "325- B Brown Street ",
    "providerName": "Impacting Futures Community Services",
    "phone": "804-924-7471",
    "state": "VA",
    "lng": "-77.40823739999999",
    "lat": "37.2241892",
    "city": "Petersburg",
    "zip": "23803"
  },
  {
    "city": "Richmond",
    "providerName": "Integrated Health Services",
    "phone": "(804) 225-8405",
    "lat": "37.6082306",
    "state": "VA",
    "zip": "23238",
    "lng": "-77.5780651",
    "street": "1403 Pemberton Rd"
  },
  {
    "lat": "37.60820289999999",
    "lng": "-77.57810599999999",
    "street": "2 Eaton Street, Suite 1103",
    "providerName": "Integrated Health Services",
    "phone": "(757) 838-1894",
    "state": "VA",
    "zip": "23669",
    "city": "Hampton"
  },
  {
    "state": "VA",
    "phone": "(757)838-1894",
    "lat": "36.8450559",
    "city": "Virginia Beach",
    "providerName": "Integrated Health Services",
    "lng": "-76.1384056",
    "zip": "23462",
    "street": "287 Independence Blvd. Suite 322"
  },
  {
    "street": "5511 Staples Mill Rd. Suite 102",
    "city": "Richmond",
    "lat": 37.6042558,
    "state": "VA",
    "lng": -77.4921097,
    "phone": "804-864-1320",
    "providerName": "Intercept Health",
    "zip": 23228
  },
  {
    "lng": -79.9609746,
    "zip": 24012,
    "state": "VA",
    "providerName": "Intercept Health",
    "lat": 37.3238269,
    "city": "Roanoke",
    "street": "5673 Airport Road",
    "phone": "540.344.7700"
  },
  {
    "providerName": "Intercept Health",
    "zip": "",
    "phone": "",
    "city": "Henrico",
    "lng": -78.61643300000003,
    "lat": 36.592528,
    "street": "Boys Group Home (2 locations)",
    "state": "VA"
  },
  {
    "lat": 37.2709704,
    "providerName": "Intercept Health",
    "street": "Independent Living Program (2 Locations)",
    "state": "VA",
    "lng": -79.9414266,
    "city": "Roanoke",
    "zip": "",
    "phone": ""
  },
  {
    "lat": 36.592528,
    "street": "Independent Living Program (3 Locations)",
    "city": "Henrico",
    "zip": "",
    "phone": "",
    "state": "VA",
    "providerName": "Intercept Health",
    "lng": -78.61643300000003
  },
  {
    "lng": -78.86891550000001,
    "state": "VA",
    "providerName": "Intercept Health",
    "lat": 38.4495688,
    "street": "Independent Living Program",
    "zip": "",
    "phone": "",
    "city": "Charlottesville"
  },
  {
    "street": "Independent Living Program",
    "zip": "",
    "city": "Chesapeake",
    "lng": -76.28749270000003,
    "state": "VA",
    "phone": "",
    "lat": 36.7682088,
    "providerName": "Intercept Health"
  },
  {
    "lng": -76.47301219999997,
    "providerName": "Intercept Health",
    "phone": "",
    "lat": 37.0870821,
    "city": "Hampton",
    "street": "Independent Living Program",
    "state": "VA",
    "zip": ""
  },
  {
    "phone": "",
    "city": "Manassas",
    "zip": "",
    "lng": -77.47526670000002,
    "lat": 38.7509488,
    "state": "VA",
    "providerName": "Intercept Health",
    "street": "Independent Living Program"
  },
  {
    "state": "VA",
    "lng": -75.97798499999999,
    "street": "Independent Living Program",
    "city": "Virginia Beach",
    "zip": "",
    "phone": "",
    "lat": 36.8529263,
    "providerName": "Intercept Health"
  },
  {
    "state": "VA",
    "phone": "",
    "providerName": "Intercept Health",
    "street": "Shenandoah House (Boys Group Home)",
    "lng": -78.77391119999999,
    "zip": "",
    "city": "Timberville",
    "lat": 38.6390069
  },
  {
    "zip": 23867,
    "providerName": "Jackson Feild Behavioral Health Services",
    "state": "VA",
    "city": "Jarratt",
    "phone": "(434) 634-3217 ext. 3027",
    "lng": -77.54995129999998,
    "street": "546 Walnut Grove Drive",
    "lat": 36.8400898
  },
  {
    "lat": 37.3471521,
    "state": "VA",
    "street": "137 Laxton Rd",
    "lng": -79.23555520000002,
    "providerName": "Life Push",
    "zip": 24502,
    "phone": "434-774-8539",
    "city": "Lynchburg"
  },
  {
    "street": "308 Craghead St., Suite 102B",
    "providerName": "Life Push",
    "lat": 36.5867166,
    "city": "Danville",
    "zip": 24541,
    "state": "VA",
    "lng": -79.38939599999998,
    "phone": "(434) 774-8539"
  },
  {
    "city": "Glen Allen",
    "lng": -77.4597099,
    "lat": 37.6773678,
    "state": "VA",
    "zip": 23059,
    "street": "10187 Brook Road",
    "providerName": "Lifebridge Counseling",
    "phone": "804-612-3302"
  },
  {
    "street": "11622 Warwick Blvd",
    "providerName": "Lifebridge Counseling",
    "phone": "540-523-8099",
    "state": "VA",
    "zip": 23601,
    "lat": 37.0574449,
    "lng": -76.4822221,
    "city": "Newport News"
  },
  {
    "state": "VA",
    "lng": -77.4845988,
    "providerName": "Lifebridge Counseling",
    "phone": "804-612-3330",
    "lat": 37.3540088,
    "street": "11961 Ironbridge Road",
    "city": "Chester",
    "zip": 23831
  },
  {
    "city": "Wytheville",
    "lng": -81.0847568,
    "phone": "540-523-8099",
    "state": "VA",
    "zip": 24382,
    "providerName": "Lifebridge Counseling",
    "lat": 36.9462743,
    "street": "285 South 6th Street"
  },
  {
    "street": "5673 Airport Road",
    "zip": 24012,
    "lat": 37.3238269,
    "phone": "540-523-8099",
    "state": "VA",
    "providerName": "Lifebridge Counseling",
    "lng": -79.9609746,
    "city": "Roanoke"
  },
  {
    "state": "VA",
    "street": "605 Calvert Street",
    "lng": -79.0702118,
    "phone": "540-523-8099",
    "lat": 38.1400227,
    "providerName": "Lifebridge Counseling",
    "city": "Staunton",
    "zip": 24401
  },
  {
    "city": "Chesapeake",
    "state": "VA",
    "street": "624 Happy Acres Road",
    "phone": "804-612-3302",
    "zip": 23323,
    "lng": -76.3451639,
    "providerName": "Lifebridge Counseling",
    "lat": 36.7634462
  },
  {
    "lat": 37.9074682,
    "phone": "(804) 443-4541",
    "zip": 22560,
    "state": "VA",
    "street": "1413 Teakwood Drive",
    "lng": -76.8656811,
    "city": "Tappahannock",
    "providerName": "Middle Peninsula Northern Neck Community Services Board"
  },
  {
    "city": "Warsaw",
    "zip": 22572,
    "phone": "(804) 333-3671",
    "lat": 37.963875,
    "street": "414 Main St",
    "lng": -76.7549554,
    "state": "VA",
    "providerName": "Middle Peninsula Northern Neck Community Services Board"
  },
  {
    "zip": 23149,
    "street": "530 General Puller Highway | P.O. Box 40",
    "lng": -76.60063029999999,
    "providerName": "Middle Peninsula Northern Neck Community Services Board",
    "city": "Saluda",
    "phone": "(804) 758-4035",
    "state": "VA",
    "lat": 37.6075782
  },
  {
    "lng": "",
    "city": "Gloucester",
    "lat": "",
    "phone": "(804) 693-5057",
    "zip": 23061,
    "providerName": "Middle Peninsula Northern Neck Community Services Board",
    "state": "VA",
    "street": "9228 George Washington Memorial Hwy"
  },
  {
    "state": "VA",
    "phone": "",
    "lat": 36.6212684,
    "providerName": "MountainView Counseling LLC",
    "lng": -80.1935,
    "street": "23002 Jeb Stuart Hwy.",
    "zip": 24171,
    "city": "Stuart"
  },
  {
    "city": "Fredericksburg",
    "zip": 22407,
    "lat": 38.246,
    "state": "VA",
    "providerName": "National Counseling Group",
    "street": "10712 Ballantraye Dr. Suite 312",
    "lng": -77.513,
    "phone": "(540) 446-0007"
  },
  {
    "zip": 22701,
    "phone": "(540) 825-0705",
    "lng": -78.223,
    "city": "Culpeper",
    "providerName": "National Counseling Group",
    "street": "13230 Lovers Lane",
    "state": "VA",
    "lat": 38.126
  },
  {
    "street": "151 Deer Run Road",
    "lng": -79.407,
    "state": "VA",
    "lat": 36.614,
    "providerName": "National Counseling Group",
    "city": "Danville",
    "phone": "(276) 638-8000",
    "zip": 24540
  },
  {
    "providerName": "National Counseling Group",
    "street": "1951-B Evelyn Byrd Avenue",
    "city": "Harrisonburg",
    "lat": 38.428,
    "zip": 22801,
    "phone": "(540) 437-0403",
    "state": "VA",
    "lng": -78.848
  },
  {
    "zip": 24502,
    "street": "201 Archway Ct",
    "providerName": "National Counseling Group",
    "lng": -79.24615010000002,
    "city": "Lynchburg",
    "state": "VA",
    "phone": "(434) 382-1642",
    "lat": 37.363991
  },
  {
    "city": "Petersburg",
    "street": "21 Walnut Boulevard Suites 1-3",
    "state": "VA",
    "phone": "804) 767-3470",
    "lng": -77.381,
    "providerName": "National Counseling Group",
    "zip": 23805,
    "lat": 37.202
  },
  {
    "state": "VA",
    "street": "3212 Churchland Blvd Suite 6",
    "lng": -76.408,
    "lat": 36.866,
    "providerName": "National Counseling Group",
    "zip": 23321,
    "city": "Chesapeake",
    "phone": "(757) 325-9570"
  },
  {
    "lng": -79.987,
    "state": "VA",
    "lat": 37.224,
    "phone": "(540) 776-0716",
    "city": "Roanoke",
    "zip": 24018,
    "street": "3912 Electric Road Building C",
    "providerName": "National Counseling Group"
  },
  {
    "zip": 23350,
    "providerName": "National Counseling Group",
    "city": "Exmore",
    "lng": -75.833,
    "lat": 37.516,
    "state": "VA",
    "street": "4376 Lankford Highway Suite 2",
    "phone": "(757) 442-6746"
  },
  {
    "phone": "276-226-2828",
    "zip": 24210,
    "city": "Abingdon",
    "state": "VA",
    "lng": -81.9613215,
    "street": "492 East Main Street",
    "providerName": "National Counseling Group",
    "lat": 36.7148886
  },
  {
    "zip": 23230,
    "lat": 37.578497,
    "street": "5014 Monument Ave",
    "state": "VA",
    "lng": -77.49895900000001,
    "providerName": "National Counseling Group",
    "city": "Richmond",
    "phone": "(804) 497-4676"
  },
  {
    "providerName": "National Counseling Group",
    "street": "505 North Main Street Suite 101",
    "city": "Woodstock",
    "lat": 38.888,
    "zip": 22664,
    "lng": -78.501,
    "phone": "(540) 409-4920",
    "state": "VA"
  },
  {
    "state": "VA",
    "providerName": "National Counseling Group",
    "street": "512 B North Coalter Street",
    "phone": "(540) 213-8470",
    "lat": 38.159,
    "city": "Staunton",
    "zip": 24401,
    "lng": -79.063
  },
  {
    "zip": 23230,
    "street": "5540 Falmouth Street; 2nd Floor",
    "city": "Richmond",
    "lat": 37.6021301,
    "state": "VA",
    "providerName": "National Counseling Group",
    "phone": "(877) 566-9624",
    "lng": -77.50775729999998
  },
  {
    "providerName": "National Counseling Group",
    "street": "610 Thimble Shoals Blvd, Suite 303B",
    "zip": 23606,
    "state": "VA",
    "lng": -76.478,
    "phone": "(757) 240-5595",
    "lat": 37.083,
    "city": "Newport News"
  },
  {
    "city": "Norfolk",
    "street": "6345 Center Drive. Bldg 14",
    "providerName": "National Counseling Group",
    "phone": "(757) 467-8184",
    "zip": 23502,
    "lat": 36.84663810000001,
    "state": "VA",
    "lng": -76.18774730000001
  },
  {
    "zip": 22901,
    "city": "Charlottesville",
    "lng": -78.47806170000001,
    "providerName": "National Counseling Group",
    "street": "696 Berkmar Circle, Suite 3B",
    "lat": 38.084489,
    "phone": "(434) 260-7877",
    "state": "VA"
  },
  {
    "providerName": "National Counseling Group",
    "phone": "(757) 847-9386",
    "lng": -76.596,
    "zip": 23434,
    "street": "707 Gittings Street Suite 100",
    "state": "VA",
    "city": "Suffolk",
    "lat": 36.729
  },
  {
    "phone": "(276) 638-8000",
    "lng": -79.855,
    "zip": 24112,
    "providerName": "National Counseling Group",
    "street": "730 East Church Street Suite 24",
    "lat": 36.688,
    "state": "VA",
    "city": "Martinsville"
  },
  {
    "phone": "(703) 813-5982",
    "zip": 22003,
    "providerName": "National Counseling Group",
    "lat": 38.833,
    "state": "VA",
    "lng": -77.209,
    "street": "7620 Little River Tpke Suite 402",
    "city": "Annandale"
  },
  {
    "lat": 39.163,
    "street": "817 Cedar Creek Grade, Suite 202",
    "providerName": "National Counseling Group",
    "lng": -78.191,
    "state": "VA",
    "city": "Winchester",
    "phone": "(540) 450-2734",
    "zip": 22601
  },
  {
    "lng": -80.40506449999998,
    "street": "930 Cambria St NE",
    "lat": 37.1421894,
    "city": "Christiansburg",
    "phone": "(540) 602-3021",
    "state": "VA",
    "zip": 24073,
    "providerName": "National Counseling Group"
  },
  {
    "phone": "(703) 257-5997",
    "lng": -77.479,
    "state": "VA",
    "lat": 38.766,
    "zip": 20110,
    "street": "9301 Forest Point Cir",
    "city": "Manassas",
    "providerName": "National Counseling Group"
  },
  {
    "lat": 38.2966899,
    "providerName": "New Genesis Recovery Center",
    "state": "VA",
    "lng": -77.49560070000001,
    "phone": "540-412-8330",
    "zip": 22401,
    "street": "701 Westwood Office Park",
    "city": "Fredericksburg"
  },
  {
    "lat": "38.4504195",
    "zip": "",
    "phone": "",
    "state": "VA",
    "providerName": "New Provider",
    "lng": "-78.8683315",
    "street": "100 Main Street",
    "city": "Harrisonburg"
  },
  {
    "zip": "",
    "street": "100 N Main Street",
    "phone": "",
    "city": "Roanoke",
    "providerName": "New Provider",
    "lng": "-79.9414266",
    "state": "VA",
    "lat": "37.2709704"
  },
  {
    "street": "123 S Main St",
    "lng": "-77.5645323",
    "lat": "39.1154523",
    "providerName": "New Provider 20240601",
    "state": "VA",
    "zip": "",
    "city": "Leesburg",
    "phone": ""
  },
  {
    "providerName": "NewProviderWithAuth",
    "state": "VA",
    "street": "123 Main Street",
    "lat": "38.84626009999999",
    "lng": "-77.3066109",
    "city": "Fairfax",
    "zip": "",
    "phone": ""
  },
  {
    "state": "VA",
    "zip": 23188,
    "providerName": "Oceanside Evaluations",
    "lat": "",
    "phone": "(757) 771-0269",
    "lng": "",
    "city": "Williamsburg",
    "street": "115A Bulifants Blvd."
  },
  {
    "street": "3115 Lorraine Avenue",
    "zip": 23509,
    "phone": "757-625-0504",
    "state": "VA",
    "lng": -76.2663091,
    "providerName": "Paramount Youth Services",
    "lat": 36.87730579999999,
    "city": "Norfolk"
  },
  {
    "zip": 24502,
    "city": "Lynchburg",
    "state": "VA",
    "lat": "",
    "phone": "(434) 316-9006",
    "street": "1892 Graves Mill Road Suite D",
    "lng": "",
    "providerName": "Rice Counseling and Associates"
  },
  {
    "state": "VA",
    "lat": 38.8702162,
    "lng": -78.39034129999999,
    "phone": "(540) 220-1481",
    "zip": 22652,
    "street": "9331 Fort Valley Road",
    "city": "Fort Valley",
    "providerName": "Roz Anderson"
  },
  {
    "phone": "(703) 303-2855",
    "state": "VA",
    "lat": 39.0987821,
    "zip": 20110,
    "providerName": "Salveo Consulting",
    "lng": -77.54108129999997,
    "street": "8781 Mathis Ave. 2nd Floor",
    "city": "Manassas"
  },
  {
    "providerName": "Salveo Consulting",
    "state": "VA",
    "zip": 20110,
    "city": "Leesburg",
    "lat": 38.764581,
    "phone": "(703) 303-2855",
    "lng": -77.459204,
    "street": "901 Trailview Blvd."
  },
  {
    "street": "901 Trailview Blvd.",
    "state": "VA",
    "providerName": "Salveo Consulting",
    "lng": -77.54108129999997,
    "city": "Leesburg",
    "zip": 20175,
    "phone": "(703) 303-2855",
    "lat": 39.0987821
  },
  {
    "street": "356 S. Main Street",
    "lng": -78.869,
    "zip": 22801,
    "lat": 38.446,
    "phone": "(540) 434-1730",
    "state": "VA",
    "city": "Harrisonburg",
    "providerName": "Shenandoah Valley Adolescent Treatment"
  },
  {
    "lat": "37.5149037",
    "phone": "757-784-298723124",
    "providerName": "Spectrum Health Solutions",
    "state": "VA",
    "street": "",
    "zip": "",
    "city": "New Kent",
    "lng": "-76.9848327"
  },
  {
    "phone": "",
    "city": "Danville",
    "zip": 24541,
    "state": "VA",
    "providerName": "Strategic Therapy Associates",
    "lng": -79.4311371,
    "street": "1225 W. Main St.",
    "lat": 36.5674882
  },
  {
    "street": "15a East Church St.",
    "state": "VA",
    "providerName": "Strategic Therapy Associates",
    "zip": 24112,
    "lng": -79.8726027,
    "city": "Martinsville",
    "phone": "",
    "lat": 36.6910191
  },
  {
    "providerName": "Strategic Therapy Associates",
    "city": "Farmville",
    "state": "VA",
    "lng": -78.39419889999999,
    "street": "217 W. 3rd St. Ste. 5&8",
    "lat": 37.3031704,
    "zip": 23901,
    "phone": ""
  },
  {
    "state": "VA",
    "street": "2428 Almeda Ave. Ste. 108",
    "lat": 36.8789629,
    "city": "Norfolk",
    "phone": "",
    "zip": 23513,
    "providerName": "Strategic Therapy Associates",
    "lng": -76.215035
  },
  {
    "lat": 37.2506384,
    "zip": 24014,
    "street": "306 McClanahan St. Ste. B",
    "city": "Roanoke",
    "providerName": "Strategic Therapy Associates",
    "phone": "",
    "lng": -79.94844510000001,
    "state": "VA"
  },
  {
    "lng": -79.2341454,
    "street": "66 Timberoak Ct.",
    "lat": 37.3428129,
    "providerName": "Strategic Therapy Associates",
    "zip": 24502,
    "phone": 4347930567,
    "state": "VA",
    "city": "Lynchburg"
  },
  {
    "lat": 36.6990954,
    "street": "7599 C. Carrollton Pike",
    "zip": 24333,
    "state": "VA",
    "city": "Galax",
    "lng": -80.8618649,
    "providerName": "Strategic Therapy Associates",
    "phone": ""
  },
  {
    "phone": "(540) 324-8965",
    "zip": 22601,
    "lng": -78.1855985,
    "lat": 39.1379981,
    "city": "Winchester",
    "state": "VA",
    "street": "129 Youth Development Court",
    "providerName": "TEENS"
  },
  {
    "zip": 23230,
    "phone": "(804) 278-9151",
    "lat": 37.5796442,
    "state": "VA",
    "city": "Richmond",
    "street": "4807 Radford Ave. Ste 106",
    "lng": -77.49391839999998,
    "providerName": "The Choice Group"
  },
  {
    "city": "Lousia",
    "street": "109 Elm Ave.",
    "zip": 23093,
    "lat": 38.0241477,
    "phone": "804-644-4444",
    "lng": -78.0044873,
    "state": "VA",
    "providerName": "The MARCS Agency"
  },
  {
    "phone": "804-644-4444",
    "street": "11024 Warwick Blvd. Suite B.",
    "zip": 23601,
    "providerName": "The MARCS Agency",
    "city": "Newport News",
    "lat": 37.0454483,
    "state": "VA",
    "lng": -76.4731661
  },
  {
    "providerName": "The MARCS Agency",
    "street": "1605 Brook Road Suite B",
    "lng": -77.44559100000001,
    "lat": 37.5578806,
    "city": "Richmond",
    "zip": 23220,
    "phone": "804-644-4444",
    "state": "VA"
  },
  {
    "zip": 20176,
    "street": "211 Gibson Street, NW Suite 123",
    "providerName": "The Williams Center",
    "city": "Leesburg",
    "lng": -77.5676287,
    "state": "VA",
    "lat": 39.1197293,
    "phone": "(571) 561-3040"
  },
  {
    "lng": -78.1376248,
    "state": "VA",
    "zip": 23944,
    "city": "Kenbridge",
    "phone": "(434) 676-1378",
    "providerName": "Three Rivers Treatment Center",
    "lat": 36.9744472,
    "street": "231 Hickory Rd"
  },
  {
    "state": "VA",
    "lng": -75.97921939999999,
    "providerName": "Tidewater Youth Services Commission",
    "city": "Virginia Beach",
    "lat": 36.8516437,
    "phone": "+1 757-488-9161",
    "zip": "",
    "street": ""
  },
  {
    "state": "VA",
    "lat": 36.8173192,
    "street": "2404 Airline Blvd",
    "phone": "+1 757-488-9161",
    "city": "Portsmouth",
    "zip": "",
    "providerName": "Tidewater Youth Services Commission",
    "lng": -76.3550806
  },
  {
    "lat": 39.376208,
    "phone": "(540) 888-3456 x1127",
    "city": "Cross Junction",
    "street": "1463 New Hope Road",
    "zip": 22625,
    "providerName": "Timber Ridge",
    "state": "VA",
    "lng": -78.31155799999999
  },
  {
    "state": "VA",
    "lat": 38.8138374,
    "zip": 22304,
    "providerName": "Transitions The Process of Change",
    "city": "Alexandria",
    "street": "101 South Whiting Street Suite 1600",
    "phone": "703-862-3762",
    "lng": -77.13759569999999
  },
  {
    "street": "2124 Jefferson Davis Highway, Suite 102",
    "zip": 22554,
    "city": "Stafford",
    "phone": "703-862-3762",
    "lat": 38.4222432,
    "providerName": "Transitions The Process of Change",
    "state": "VA",
    "lng": -77.40703649999999
  },
  {
    "phone": "(571) 366-0086",
    "lng": -77.183,
    "state": "VA",
    "zip": 22151,
    "providerName": "Trauma and Hope",
    "city": "Springfield",
    "lat": 38.803,
    "street": "5417 Backlick Road Suite C"
  },
  {
    "street": "9028 Prince William Street, Unit E",
    "providerName": "Trauma and Hope",
    "zip": 20110,
    "lat": 38.7501675,
    "phone": "(571) 366-0086",
    "state": "VA",
    "city": "Manassas",
    "lng": -77.4705005
  },
  {
    "state": "VA",
    "phone": "",
    "city": "",
    "providerName": "United Methodist Family Services",
    "lng": "",
    "lat": "",
    "street": "",
    "zip": ""
  },
  {
    "zip": 23455,
    "phone": 7574909791,
    "providerName": "United Methodist Family Services",
    "street": "1300 Diamond Springs Road, Ste",
    "lat": 37.573,
    "state": "VA",
    "lng": -77.479,
    "city": "Virginia Beach"
  },
  {
    "lng": -76.17932489999998,
    "zip": 23455,
    "street": "1300 Diamond Springs Road, Ste. 401",
    "phone": "757.490.9791",
    "lat": 36.8879495,
    "city": "Virginia Beach",
    "providerName": "United Methodist Family Services",
    "state": "VA"
  },
  {
    "lat": 38.3027479,
    "lng": -77.51296489999999,
    "city": "Fredericksburg",
    "state": "VA",
    "providerName": "United Methodist Family Services",
    "street": "1320 Central Park Blvd. Ste. 310",
    "zip": 22401,
    "phone": "540.898.1773"
  },
  {
    "zip": 23901,
    "lng": -78.38879989999998,
    "street": "306 E 3rd St, ste. B",
    "state": "VA",
    "city": "Farmville",
    "lat": 37.3015434,
    "phone": "434-391-9076",
    "providerName": "United Methodist Family Services"
  },
  {
    "state": "VA",
    "providerName": "United Methodist Family Services",
    "phone": "703.941.9008",
    "zip": 22312,
    "lat": 38.80577419999999,
    "lng": -77.1677037,
    "street": "5400 Shawnee Road, Ste. 303",
    "city": "Alexandria"
  },
  {
    "phone": "434.447.8630",
    "providerName": "United Methodist Family Services",
    "state": "VA",
    "lat": 36.7345493,
    "street": "828 N Mcklenburg Ave. Ste. B",
    "zip": 23970,
    "city": "South Hill",
    "lng": -78.1210752
  },
  {
    "lng": -77.61539069999999,
    "city": "Bon Air",
    "street": "1909 Huguenot Rd Suite 201",
    "zip": 23235,
    "phone": "804.350.7952",
    "providerName": "Virginia Counseling Associates",
    "state": "VA",
    "lat": 37.5192739
  },
  {
    "zip": 23294,
    "providerName": "Virginia Home for Boys and Girls",
    "city": "Henrico",
    "lat": 37.634,
    "street": "8716 W. BroadStreet",
    "lng": -77.542,
    "state": "VA",
    "phone": "(804)270-6566 ext. 135"
  },
  {
    "zip": "99999",
    "providerName": "XYZ Counseling",
    "lat": 38.918929,
    "street": "123 Main St",
    "phone": "540-555-1234",
    "city": "Front Royal",
    "state": "VA",
    "lng": -78.1954975
  },
  {
    "providerName": "XYZ Counseling",
    "street": "123 Main St",
    "city": "Winchester",
    "phone": "540-555-5555",
    "state": "VA",
    "lat": 39.1249685,
    "zip": "99999",
    "lng": -78.1572795
  },
  {
    "providerName": "York County Juvenile Services",
    "phone": "(Services Provided at York / Poquoson Courthouse)",
    "street": "300 Ballard Street",
    "lat": 37.2326184,
    "state": "VA",
    "city": "Yorktown",
    "lng": -76.51176829999997,
    "zip": 23690
  },
  {
    "lat": 37.2740897,
    "city": "Williamsburg",
    "phone": "(Services Provided at Williamsburg CSU)",
    "street": "4093 Ironbound Road, Suite C",
    "state": "VA",
    "providerName": "York County Juvenile Services",
    "lng": -76.74216569999999,
    "zip": 23188
  },
  {
    "street": "7400 Justice Drive",
    "zip": 23061,
    "phone": "(Services Provided at Gloucester Courthouse)",
    "city": "Gloucester",
    "providerName": "York County Juvenile Services",
    "lng": -76.53067290000001,
    "lat": 37.4168679,
    "state": "VA"
  },
  {
    "phone": "(540) 488-5636",
    "city": "Rocky Mount",
    "lat": 37.0050265,
    "lng": -79.87970519999999,
    "providerName": "Youth Connect of Virginia",
    "state": "VA",
    "zip": 24151,
    "street": "370 Tanyard Road"
  },
  {
    "zip": 20136,
    "lat": 38.739,
    "city": "Bristow",
    "providerName": "Youth for Tomorrow",
    "phone": "(703) 659-9836",
    "street": "11835 Hazel Circle Drive",
    "lng": -77.549,
    "state": "VA"
  },
  {
    "lat": 38.6500693,
    "zip": 22193,
    "city": "Woodbridge",
    "state": "VA",
    "street": "14000 Crown Court, Suite 101",
    "lng": -77.31099329999999,
    "phone": "",
    "providerName": "Youth for Tomorrow"
  },
  {
    "state": "VA",
    "zip": 20176,
    "lat": 39.0793673,
    "phone": "703-659-9900",
    "providerName": "Youth for Tomorrow",
    "city": "Landsdowne",
    "lng": -77.47752120000001,
    "street": "19415 Deerfield Avenue Suite 101"
  },
  {
    "providerName": "Youth for Tomorrow",
    "city": "Warrenton",
    "lng": -77.7918267,
    "zip": 20186,
    "state": "VA",
    "street": "20 Rock Pointe Lane, Suite 201",
    "lat": 38.722702,
    "phone": ""
  },
  {
    "lng": -77.63549019999999,
    "lat": 38.8125854,
    "state": "VA",
    "city": "Haymarket",
    "zip": 20169,
    "phone": "703-659-9900",
    "street": "6611 Jefferson Street, 1st Floor",
    "providerName": "Youth for Tomorrow"
  },
  {
    "zip": 22150,
    "street": "6800 Backlick Road, Suite 300",
    "phone": "",
    "lng": -77.1845518,
    "providerName": "Youth for Tomorrow",
    "state": "VA",
    "city": "Springfield",
    "lat": 38.7710912
  }
]